TJS-19                  
1 63924U 25097A   26087.75213838 -.00000299  00000+0  00000+0 0  9996
2 63924   3.4239 316.1791 0002522 336.7721 305.1825  1.00274898  3337
